{
  "type": "FeatureCollection",
  "features": [
    {
      "type": "Feature",
      "properties": {
        "norad_id": 34614,
        "name": "COSMOS 2251 DEB",
        "group": "cosmos-2251-debris",
        "lat": 62.11855716424874,
        "lon": 132.81795710332085,
        "alt_km": 923.2881714839614,
        "timestamp": "2025-12-11T13:55:02.561005+00:00",
        "meta_object_name": "COSMOS 2251 DEB",
        "meta_object_id": "1993-036WK",
        "meta_epoch": "2025-12-10T19:00:31.759200",
        "meta_mean_motion": 14.17409998,
        "meta_eccentricity": 0.01978528,
        "meta_inclination": 73.8731,
        "meta_ra_of_asc_node": 347.3883,
        "meta_arg_of_pericenter": 341.6189,
        "meta_mean_anomaly": 71.0573,
        "meta_ephemeris_type": 0,
        "meta_classification_type": "U",
        "meta_norad_cat_id": 34614,
        "meta_element_set_no": 999,
        "meta_rev_at_epoch": 84739,
        "meta_bstar": 0.0092988645,
        "meta_mean_motion_dot": 0.00022874,
        "meta_mean_motion_ddot": 0,
        "tle_line1": "1 34614U 93036WK  25344.79203425  .00022874  00000+0  92989-2 0  9990",
        "tle_line2": "2 34614  73.8731 347.3883 0197852 341.6189  71.0573 14.17409998847395"
      },
      "geometry": {
        "type": "Point",
        "coordinates": [
          132.81795710332085,
          62.11855716424874
        ]
      }
    },
    {
      "type": "Feature",
      "properties": {
        "norad_id": 34615,
        "name": "COSMOS 2251 DEB",
        "group": "cosmos-2251-debris",
        "lat": -70.42360487080775,
        "lon": -117.75752577038625,
        "alt_km": 997.4310060604967,
        "timestamp": "2025-12-11T13:55:02.561015+00:00",
        "meta_object_name": "COSMOS 2251 DEB",
        "meta_object_id": "1993-036WL",
        "meta_epoch": "2025-12-10T20:42:57.430080",
        "meta_mean_motion": 13.52201417,
        "meta_eccentricity": 0.04013963,
        "meta_inclination": 74.005,
        "meta_ra_of_asc_node": 297.151,
        "meta_arg_of_pericenter": 204.7797,
        "meta_mean_anomaly": 184.5274,
        "meta_ephemeris_type": 0,
        "meta_classification_type": "U",
        "meta_norad_cat_id": 34615,
        "meta_element_set_no": 999,
        "meta_rev_at_epoch": 82790,
        "meta_bstar": 0.0001877765,
        "meta_mean_motion_dot": 1.83e-06,
        "meta_mean_motion_ddot": 0,
        "tle_line1": "1 34615U 93036WL  25344.86316470  .00000183  00000+0  18778-3 0  9998",
        "tle_line2": "2 34615  74.0050 297.1510 0401396 204.7797 184.5274 13.52201417827904"
      },
      "geometry": {
        "type": "Point",
        "coordinates": [
          -117.75752577038625,
          -70.42360487080775
        ]
      }
    },
    {
      "type": "Feature",
      "properties": {
        "norad_id": 34619,
        "name": "COSMOS 2251 DEB",
        "group": "cosmos-2251-debris",
        "lat": 69.37967322588074,
        "lon": -108.3373289509731,
        "alt_km": 721.6973721959148,
        "timestamp": "2025-12-11T13:55:02.561025+00:00",
        "meta_object_name": "COSMOS 2251 DEB",
        "meta_object_id": "1993-036WQ",
        "meta_epoch": "2025-12-11T07:00:35.437248",
        "meta_mean_motion": 14.64640802,
        "meta_eccentricity": 0.0094699,
        "meta_inclination": 74.0441,
        "meta_ra_of_asc_node": 202.721,
        "meta_arg_of_pericenter": 297.92,
        "meta_mean_anomaly": 61.2403,
        "meta_ephemeris_type": 0,
        "meta_classification_type": "U",
        "meta_norad_cat_id": 34619,
        "meta_element_set_no": 999,
        "meta_rev_at_epoch": 89277,
        "meta_bstar": 0.00036676279,
        "meta_mean_motion_dot": 2.048e-05,
        "meta_mean_motion_ddot": 0,
        "tle_line1": "1 34619U 93036WQ  25345.29207682  .00002048  00000+0  36676-3 0  9993",
        "tle_line2": "2 34619  74.0441 202.7210 0094699 297.9200  61.2403 14.64640802892779"
      },
      "geometry": {
        "type": "Point",
        "coordinates": [
          -108.3373289509731,
          69.37967322588074
        ]
      }
    },
    {
      "type": "Feature",
      "properties": {
        "norad_id": 34620,
        "name": "COSMOS 2251 DEB",
        "group": "cosmos-2251-debris",
        "lat": 18.74305399976682,
        "lon": -132.72599744807852,
        "alt_km": 758.0795456264068,
        "timestamp": "2025-12-11T13:55:02.561036+00:00",
        "meta_object_name": "COSMOS 2251 DEB",
        "meta_object_id": "1993-036WR",
        "meta_epoch": "2025-12-11T02:13:42.946752",
        "meta_mean_motion": 14.49056132,
        "meta_eccentricity": 0.00809081,
        "meta_inclination": 74.0509,
        "meta_ra_of_asc_node": 222.6176,
        "meta_arg_of_pericenter": 259.4219,
        "meta_mean_anomaly": 99.7819,
        "meta_ephemeris_type": 0,
        "meta_classification_type": "U",
        "meta_norad_cat_id": 34620,
        "meta_element_set_no": 999,
        "meta_rev_at_epoch": 86803,
        "meta_bstar": 0.0032771066,
        "meta_mean_motion_dot": 0.00012967,
        "meta_mean_motion_ddot": 0,
        "tle_line1": "1 34620U 93036WR  25345.09285818  .00012967  00000+0  32771-2 0  9992",
        "tle_line2": "2 34620  74.0509 222.6176 0080908 259.4219  99.7819 14.49056132868038"
      },
      "geometry": {
        "type": "Point",
        "coordinates": [
          -132.72599744807852,
          18.74305399976682
        ]
      }
    },
    {
      "type": "Feature",
      "properties": {
        "norad_id": 34622,
        "name": "COSMOS 2251 DEB",
        "group": "cosmos-2251-debris",
        "lat": 47.16666269464419,
        "lon": 111.11753033165218,
        "alt_km": 824.1084181013402,
        "timestamp": "2025-12-11T13:55:02.561046+00:00",
        "meta_object_name": "COSMOS 2251 DEB",
        "meta_object_id": "1993-036WT",
        "meta_epoch": "2025-12-10T16:12:53.411616",
        "meta_mean_motion": 14.22032445,
        "meta_eccentricity": 0.01042912,
        "meta_inclination": 74.0429,
        "meta_ra_of_asc_node": 310.7152,
        "meta_arg_of_pericenter": 33.6772,
        "meta_mean_anomaly": 147.9327,
        "meta_ephemeris_type": 0,
        "meta_classification_type": "U",
        "meta_norad_cat_id": 34622,
        "meta_element_set_no": 999,
        "meta_rev_at_epoch": 86430,
        "meta_bstar": 0.0015933318,
        "meta_mean_motion_dot": 3.7e-05,
        "meta_mean_motion_ddot": 0,
        "tle_line1": "1 34622U 93036WT  25344.67561819  .00003700  00000+0  15933-2 0  9991",
        "tle_line2": "2 34622  74.0429 310.7152 0104291  33.6772 147.9327 14.22032445864300"
      },
      "geometry": {
        "type": "Point",
        "coordinates": [
          111.11753033165218,
          47.16666269464419
        ]
      }
    },
    {
      "type": "Feature",
      "properties": {
        "norad_id": 34626,
        "name": "COSMOS 2251 DEB",
        "group": "cosmos-2251-debris",
        "lat": 68.36444165328948,
        "lon": 100.00435439091935,
        "alt_km": 635.1366804684103,
        "timestamp": "2025-12-11T13:55:02.561057+00:00",
        "meta_object_name": "COSMOS 2251 DEB",
        "meta_object_id": "1993-036WX",
        "meta_epoch": "2025-12-11T07:28:18.970752",
        "meta_mean_motion": 14.72170375,
        "meta_eccentricity": 0.00264869,
        "meta_inclination": 74.0486,
        "meta_ra_of_asc_node": 326.671,
        "meta_arg_of_pericenter": 55.3174,
        "meta_mean_anomaly": 66.4944,
        "meta_ephemeris_type": 0,
        "meta_classification_type": "U",
        "meta_norad_cat_id": 34626,
        "meta_element_set_no": 999,
        "meta_rev_at_epoch": 89123,
        "meta_bstar": 0.0018738324,
        "meta_mean_motion_dot": 0.00011863,
        "meta_mean_motion_ddot": 0,
        "tle_line1": "1 34626U 93036WX  25345.31133068  .00011863  00000+0  18738-2 0  9993",
        "tle_line2": "2 34626  74.0486 326.6710 0026486  55.3174  66.4944 14.72170375891231"
      },
      "geometry": {
        "type": "Point",
        "coordinates": [
          100.00435439091935,
          68.36444165328948
        ]
      }
    },
    {
      "type": "Feature",
      "properties": {
        "norad_id": 34634,
        "name": "COSMOS 2251 DEB",
        "group": "cosmos-2251-debris",
        "lat": -19.611349469199958,
        "lon": 31.321846393069773,
        "alt_km": 742.3817535554563,
        "timestamp": "2025-12-11T13:55:02.561067+00:00",
        "meta_object_name": "COSMOS 2251 DEB",
        "meta_object_id": "1993-036XF",
        "meta_epoch": "2025-12-10T13:58:03.498816",
        "meta_mean_motion": 14.55648778,
        "meta_eccentricity": 0.0044287,
        "meta_inclination": 74.0527,
        "meta_ra_of_asc_node": 39.0577,
        "meta_arg_of_pericenter": 147.0759,
        "meta_mean_anomaly": 5.5093,
        "meta_ephemeris_type": 0,
        "meta_classification_type": "U",
        "meta_norad_cat_id": 34634,
        "meta_element_set_no": 999,
        "meta_rev_at_epoch": 88750,
        "meta_bstar": 0.00052246,
        "meta_mean_motion_dot": 2.283e-05,
        "meta_mean_motion_ddot": 0,
        "tle_line1": "1 34634U 93036XF  25344.58198494  .00002283  00000+0  52246-3 0  9993",
        "tle_line2": "2 34634  74.0527  39.0577 0044287 147.0759   5.5093 14.55648778887501"
      },
      "geometry": {
        "type": "Point",
        "coordinates": [
          31.321846393069773,
          -19.611349469199958
        ]
      }
    }
  ]
}